[{"OBJECT_NAME":"STARLINK-3386","OBJECT_ID":"2022-005Y","EPOCH":"2026-03-09T21:22:14.765088","MEAN_MOTION":15.08839052,"ECCENTRICITY":0.00014515,"INCLINATION":53.2182,"RA_OF_ASC_NODE":298.2328,"ARG_OF_PERICENTER":80.3385,"MEAN_ANOMALY":279.7771,"EPHEMERIS_TYPE":0,"CLASSIFICATION_TYPE":"U","NORAD_CAT_ID":51126,"ELEMENT_SET_NO":999,"REV_AT_EPOCH":22877,"BSTAR":5.3595667e-5,"MEAN_MOTION_DOT":5.65e-6,"MEAN_MOTION_DDOT":0},{"OBJECT_NAME":"CSC-1","OBJECT_ID":"2023-155G","EPOCH":"2026-03-09T17:46:02.342496","MEAN_MOTION":15.1003596,"ECCENTRICITY":0.00075041,"INCLINATION":97.5446,"RA_OF_ASC_NODE":139.7305,"ARG_OF_PERICENTER":212.9992,"MEAN_ANOMALY":147.077,"EPHEMERIS_TYPE":0,"CLASSIFICATION_TYPE":"U","NORAD_CAT_ID":58022,"ELEMENT_SET_NO":999,"REV_AT_EPOCH":13272,"BSTAR":0.00054556609,"MEAN_MOTION_DOT":8.819e-5,"MEAN_MOTION_DDOT":0}]
